[{"OBJECT_NAME":"ONEWEB-0224","OBJECT_ID":"2021-045AD","EPOCH":"2026-06-16T06:05:13.834176","MEAN_MOTION":13.15547032,"ECCENTRICITY":0.0002344,"INCLINATION":87.9003,"RA_OF_ASC_NODE":259.4131,"ARG_OF_PERICENTER":122.3978,"MEAN_ANOMALY":237.7379,"EPHEMERIS_TYPE":0,"CLASSIFICATION_TYPE":"U","NORAD_CAT_ID":48794,"ELEMENT_SET_NO":999,"REV_AT_EPOCH":24415,"BSTAR":0.00050133,"MEAN_MOTION_DOT":2.02e-06,"MEAN_MOTION_DDOT":0.0},{"OBJECT_NAME":"ONEWEB-0233","OBJECT_ID":"2021-045AE","EPOCH":"2026-06-16T06:11:53.395296","MEAN_MOTION":13.15549256,"ECCENTRICITY":0.0001786,"INCLINATION":87.9002,"RA_OF_ASC_NODE":259.4197,"ARG_OF_PERICENTER":108.1196,"MEAN_ANOMALY":252.0129,"EPHEMERIS_TYPE":0,"CLASSIFICATION_TYPE":"U","NORAD_CAT_ID":48795,"ELEMENT_SET_NO":999,"REV_AT_EPOCH":24417,"BSTAR":0.00040595,"MEAN_MOTION_DOT":1.66e-06,"MEAN_MOTION_DDOT":0.0},{"OBJECT_NAME":"ONEWEB-0190","OBJECT_ID":"2021-045AF","EPOCH":"2026-06-16T07:43:20.546112","MEAN_MOTION":13.15547262,"ECCENTRICITY":0.0001321,"INCLINATION":87.9005,"RA_OF_ASC_NODE":259.3691,"ARG_OF_PERICENTER":111.6436,"MEAN_ANOMALY":248.4835,"EPHEMERIS_TYPE":0,"CLASSIFICATION_TYPE":"U","NORAD_CAT_ID":48796,"ELEMENT_SET_NO":999,"REV_AT_EPOCH":24425,"BSTAR":0.00058514,"MEAN_MOTION_DOT":2.33e-06,"MEAN_MOTION_DDOT":0.0},{"OBJECT_NAME":"ONEWEB-0236","OBJECT_ID":"2021-045AG","EPOCH":"2026-06-16T04:29:25.025280","MEAN_MOTION":13.15548576,"ECCENTRICITY":0.000209,"INCLINATION":87.9001,"RA_OF_ASC_NODE":259.4056,"ARG_OF_PERICENTER":101.725,"MEAN_ANOMALY":258.4115,"EPHEMERIS_TYPE":0,"CLASSIFICATION_TYPE":"U","NORAD_CAT_ID":48797,"ELEMENT_SET_NO":999,"REV_AT_EPOCH":24412,"BSTAR":0.00020524,"MEAN_MOTION_DOT":9e-07,"MEAN_MOTION_DDOT":0.0},{"OBJECT_NAME":"ONEWEB-0248","OBJECT_ID":"2021-045AH","EPOCH":"2026-06-16T06:37:10.724448","MEAN_MOTION":13.15548005,"ECCENTRICITY":0.0001746,"INCLINATION":87.9013,"RA_OF_ASC_NODE":259.3714,"ARG_OF_PERICENTER":114.4124,"MEAN_ANOMALY":245.7189,"EPHEMERIS_TYPE":0,"CLASSIFICATION_TYPE":"U","NORAD_CAT_ID":48798,"ELEMENT_SET_NO":999,"REV_AT_EPOCH":24429,"BSTAR":-8.925e-05,"MEAN_MOTION_DOT":-2.1e-07,"MEAN_MOTION_DDOT":0.0},{"OBJECT_NAME":"ONEWEB-0225","OBJECT_ID":"2021-045AJ","EPOCH":"2026-06-16T07:09:08.287776","MEAN_MOTION":13.1554914,"ECCENTRICITY":0.0001457,"INCLINATION":87.9006,"RA_OF_ASC_NODE":259.3752,"ARG_OF_PERICENTER":110.0982,"MEAN_ANOMALY":250.0305,"EPHEMERIS_TYPE":0,"CLASSIFICATION_TYPE":"U","NORAD_CAT_ID":48799,"ELEMENT_SET_NO":999,"REV_AT_EPOCH":24430,"BSTAR":-2.5080999999999995e-07,"MEAN_MOTION_DOT":1.3e-07,"MEAN_MOTION_DDOT":0.0},{"OBJECT_NAME":"ONEWEB-0215","OBJECT_ID":"2021-045AK","EPOCH":"2026-06-16T06:25:45.570720","MEAN_MOTION":13.15547301,"ECCENTRICITY":0.0001469,"INCLINATION":87.9014,"RA_OF_ASC_NODE":259.3635,"ARG_OF_PERICENTER":117.2691,"MEAN_ANOMALY":242.8589,"EPHEMERIS_TYPE":0,"CLASSIFICATION_TYPE":"U","NORAD_CAT_ID":48800,"ELEMENT_SET_NO":999,"REV_AT_EPOCH":24417,"BSTAR":3.2192e-05,"MEAN_MOTION_DOT":2.5e-07,"MEAN_MOTION_DDOT":0.0},{"OBJECT_NAME":"ONEWEB-0216","OBJECT_ID":"2021-045AL","EPOCH":"2026-06-16T06:39:28.598112","MEAN_MOTION":13.15548762,"ECCENTRICITY":0.0001967,"INCLINATION":87.901,"RA_OF_ASC_NODE":259.3763,"ARG_OF_PERICENTER":98.4785,"MEAN_ANOMALY":261.6568,"EPHEMERIS_TYPE":0,"CLASSIFICATION_TYPE":"U","NORAD_CAT_ID":48801,"ELEMENT_SET_NO":999,"REV_AT_EPOCH":24418,"BSTAR":-0.00018871,"MEAN_MOTION_DOT":-5.8e-07,"MEAN_MOTION_DDOT":0.0},{"OBJECT_NAME":"ONEWEB-0239","OBJECT_ID":"2021-045AM","EPOCH":"2026-06-16T06:46:18.843456","MEAN_MOTION":13.15549366,"ECCENTRICITY":0.0001665,"INCLINATION":87.8999,"RA_OF_ASC_NODE":259.382,"ARG_OF_PERICENTER":124.8738,"MEAN_ANOMALY":235.2549,"EPHEMERIS_TYPE":0,"CLASSIFICATION_TYPE":"U","NORAD_CAT_ID":48802,"ELEMENT_SET_NO":999,"REV_AT_EPOCH":24422,"BSTAR":-8.105400000000001e-05,"MEAN_MOTION_DOT":-1.8e-07,"MEAN_MOTION_DDOT":0.0},{"OBJECT_NAME":"ONEWEB-0249","OBJECT_ID":"2021-060A","EPOCH":"2026-06-16T05:12:22.361472","MEAN_MOTION":13.16595641,"ECCENTRICITY":0.0002057,"INCLINATION":87.9098,"RA_OF_ASC_NODE":228.9709,"ARG_OF_PERICENTER":101.5983,"MEAN_ANOMALY":258.5379,"EPHEMERIS_TYPE":0,"CLASSIFICATION_TYPE":"U","NORAD_CAT_ID":48967,"ELEMENT_SET_NO":999,"REV_AT_EPOCH":23948,"BSTAR":9.694e-05,"MEAN_MOTION_DOT":5e-07,"MEAN_MOTION_DDOT":0.0},{"OBJECT_NAME":"ONEWEB-0250","OBJECT_ID":"2021-060B","EPOCH":"2026-06-16T04:12:44.901216","MEAN_MOTION":13.25834199,"ECCENTRICITY":0.0002806,"INCLINATION":87.9097,"RA_OF_ASC_NODE":226.7386,"ARG_OF_PERICENTER":114.7532,"MEAN_ANOMALY":245.3896,"EPHEMERIS_TYPE":0,"CLASSIFICATION_TYPE":"U","NORAD_CAT_ID":48968,"ELEMENT_SET_NO":999,"REV_AT_EPOCH":24008,"BSTAR":0.00027039,"MEAN_MOTION_DOT":1.32e-06,"MEAN_MOTION_DDOT":0.0},{"OBJECT_NAME":"ONEWEB-0252","OBJECT_ID":"2021-060D","EPOCH":"2026-06-16T04:07:24.021120","MEAN_MOTION":13.16594326,"ECCENTRICITY":0.0001908,"INCLINATION":87.9099,"RA_OF_ASC_NODE":228.972,"ARG_OF_PERICENTER":92.1947,"MEAN_ANOMALY":267.9402,"EPHEMERIS_TYPE":0,"CLASSIFICATION_TYPE":"U","NORAD_CAT_ID":48970,"ELEMENT_SET_NO":999,"REV_AT_EPOCH":23952,"BSTAR":0.00031541999999999996,"MEAN_MOTION_DOT":1.33e-06,"MEAN_MOTION_DDOT":0.0},{"OBJECT_NAME":"ONEWEB-0253","OBJECT_ID":"2021-060E","EPOCH":"2026-06-16T03:51:26.523360","MEAN_MOTION":13.16593716,"ECCENTRICITY":0.0002057,"INCLINATION":87.9098,"RA_OF_ASC_NODE":228.9797,"ARG_OF_PERICENTER":101.4333,"MEAN_ANOMALY":258.7029,"EPHEMERIS_TYPE":0,"CLASSIFICATION_TYPE":"U","NORAD_CAT_ID":48971,"ELEMENT_SET_NO":999,"REV_AT_EPOCH":23945,"BSTAR":0.00037673000000000003,"MEAN_MOTION_DOT":1.57e-06,"MEAN_MOTION_DDOT":0.0},{"OBJECT_NAME":"ONEWEB-0254","OBJECT_ID":"2021-060F","EPOCH":"2026-06-16T04:05:07.343232","MEAN_MOTION":13.1659514,"ECCENTRICITY":0.0001889,"INCLINATION":87.91,"RA_OF_ASC_NODE":228.9752,"ARG_OF_PERICENTER":106.3933,"MEAN_ANOMALY":253.7406,"EPHEMERIS_TYPE":0,"CLASSIFICATION_TYPE":"U","NORAD_CAT_ID":48972,"ELEMENT_SET_NO":999,"REV_AT_EPOCH":23945,"BSTAR":0.00030737,"MEAN_MOTION_DOT":1.3e-06,"MEAN_MOTION_DDOT":0.0},{"OBJECT_NAME":"ONEWEB-0255","OBJECT_ID":"2021-060G","EPOCH":"2026-06-16T04:59:50.412768","MEAN_MOTION":13.16594821,"ECCENTRICITY":0.0001894,"INCLINATION":87.9095,"RA_OF_ASC_NODE":228.9745,"ARG_OF_PERICENTER":102.0361,"MEAN_ANOMALY":258.0983,"EPHEMERIS_TYPE":0,"CLASSIFICATION_TYPE":"U","NORAD_CAT_ID":48973,"ELEMENT_SET_NO":999,"REV_AT_EPOCH":23953,"BSTAR":1.3186e-05,"MEAN_MOTION_DOT":1.8e-07,"MEAN_MOTION_DDOT":0.0},{"OBJECT_NAME":"ONEWEB-0256","OBJECT_ID":"2021-060H","EPOCH":"2026-06-16T05:37:26.969088","MEAN_MOTION":13.16593044,"ECCENTRICITY":0.000206,"INCLINATION":87.9093,"RA_OF_ASC_NODE":228.9733,"ARG_OF_PERICENTER":94.5119,"MEAN_ANOMALY":265.6247,"EPHEMERIS_TYPE":0,"CLASSIFICATION_TYPE":"U","NORAD_CAT_ID":48974,"ELEMENT_SET_NO":999,"REV_AT_EPOCH":23950,"BSTAR":0.00015717999999999998,"MEAN_MOTION_DOT":7.3e-07,"MEAN_MOTION_DDOT":0.0},{"OBJECT_NAME":"ONEWEB-0257","OBJECT_ID":"2021-060J","EPOCH":"2026-06-16T04:34:45.240960","MEAN_MOTION":13.1659473,"ECCENTRICITY":0.0001884,"INCLINATION":87.9097,"RA_OF_ASC_NODE":228.9689,"ARG_OF_PERICENTER":97.3858,"MEAN_ANOMALY":262.7488,"EPHEMERIS_TYPE":0,"CLASSIFICATION_TYPE":"U","NORAD_CAT_ID":48975,"ELEMENT_SET_NO":999,"REV_AT_EPOCH":23945,"BSTAR":7.2451e-05,"MEAN_MOTION_DOT":4.1e-07,"MEAN_MOTION_DDOT":0.0},{"OBJECT_NAME":"ONEWEB-0258","OBJECT_ID":"2021-060K","EPOCH":"2026-06-16T04:37:02.231616","MEAN_MOTION":13.16595086,"ECCENTRICITY":0.000206,"INCLINATION":87.9099,"RA_OF_ASC_NODE":228.9807,"ARG_OF_PERICENTER":99.5442,"MEAN_ANOMALY":260.5922,"EPHEMERIS_TYPE":0,"CLASSIFICATION_TYPE":"U","NORAD_CAT_ID":48976,"ELEMENT_SET_NO":999,"REV_AT_EPOCH":23946,"BSTAR":0.00015034,"MEAN_MOTION_DOT":7e-07,"MEAN_MOTION_DDOT":0.0},{"OBJECT_NAME":"ONEWEB-0259","OBJECT_ID":"2021-060L","EPOCH":"2026-06-16T04:27:55.260000","MEAN_MOTION":13.16595352,"ECCENTRICITY":0.0002044,"INCLINATION":87.9097,"RA_OF_ASC_NODE":228.981,"ARG_OF_PERICENTER":103.2804,"MEAN_ANOMALY":256.8555,"EPHEMERIS_TYPE":0,"CLASSIFICATION_TYPE":"U","NORAD_CAT_ID":48977,"ELEMENT_SET_NO":999,"REV_AT_EPOCH":23949,"BSTAR":8.153500000000001e-05,"MEAN_MOTION_DOT":4.4e-07,"MEAN_MOTION_DDOT":0.0},{"OBJECT_NAME":"ONEWEB-0260","OBJECT_ID":"2021-060M","EPOCH":"2026-06-16T04:15:22.347072","MEAN_MOTION":13.16594779,"ECCENTRICITY":0.0001987,"INCLINATION":87.9093,"RA_OF_ASC_NODE":228.9846,"ARG_OF_PERICENTER":86.7037,"MEAN_ANOMALY":273.4321,"EPHEMERIS_TYPE":0,"CLASSIFICATION_TYPE":"U","NORAD_CAT_ID":48978,"ELEMENT_SET_NO":999,"REV_AT_EPOCH":23947,"BSTAR":0.00028679,"MEAN_MOTION_DOT":1.22e-06,"MEAN_MOTION_DDOT":0.0},{"OBJECT_NAME":"ONEWEB-0261","OBJECT_ID":"2021-060N","EPOCH":"2026-06-16T05:21:28.011168","MEAN_MOTION":13.16595635,"ECCENTRICITY":0.0001688,"INCLINATION":87.9094,"RA_OF_ASC_NODE":228.9756,"ARG_OF_PERICENTER":99.8673,"MEAN_ANOMALY":260.2648,"EPHEMERIS_TYPE":0,"CLASSIFICATION_TYPE":"U","NORAD_CAT_ID":48979,"ELEMENT_SET_NO":999,"REV_AT_EPOCH":23953,"BSTAR":8.799200000000001e-05,"MEAN_MOTION_DOT":4.6e-07,"MEAN_MOTION_DDOT":0.0},{"OBJECT_NAME":"ONEWEB-0262","OBJECT_ID":"2021-060P","EPOCH":"2026-06-16T04:52:59.833056","MEAN_MOTION":13.16595095,"ECCENTRICITY":0.0002079,"INCLINATION":87.9097,"RA_OF_ASC_NODE":228.9653,"ARG_OF_PERICENTER":106.069,"MEAN_ANOMALY":254.067,"EPHEMERIS_TYPE":0,"CLASSIFICATION_TYPE":"U","NORAD_CAT_ID":48980,"ELEMENT_SET_NO":999,"REV_AT_EPOCH":23949,"BSTAR":-4.2905000000000003e-05,"MEAN_MOTION_DOT":-4e-08,"MEAN_MOTION_DDOT":0.0},{"OBJECT_NAME":"ONEWEB-0263","OBJECT_ID":"2021-060Q","EPOCH":"2026-06-16T05:38:35.679552","MEAN_MOTION":13.16594792,"ECCENTRICITY":0.000173,"INCLINATION":87.9098,"RA_OF_ASC_NODE":228.9707,"ARG_OF_PERICENTER":103.7378,"MEAN_ANOMALY":256.3945,"EPHEMERIS_TYPE":0,"CLASSIFICATION_TYPE":"U","NORAD_CAT_ID":48981,"ELEMENT_SET_NO":999,"REV_AT_EPOCH":23946,"BSTAR":0.00020978,"MEAN_MOTION_DOT":9.3e-07,"MEAN_MOTION_DDOT":0.0}]